*******************************************************************************
Ephemeris / WWW_USER Mon Mar 26 22:12:25 2018 Pasadena, USA      / Horizons    
*******************************************************************************
Target body name: Titan (606)                     {source: sat389}
Center body name: Solar System Barycenter (0)     {source: DE431mx}
Center-site name: BODY CENTER
*******************************************************************************
Start time      : A.D. 2000-Jan-01 00:00:00.0000 TDB
Stop  time      : A.D. 2005-Jan-01 00:00:00.0000 TDB
Step-size       : 7200 minutes
*******************************************************************************
Center geodetic : 0.00000000,0.00000000,0.0000000 {E-lon(deg),Lat(deg),Alt(km)}
Center cylindric: 0.00000000,0.00000000,0.0000000 {E-lon(deg),Dxy(km),Dz(km)}
Center radii    : (undefined)                                                  
Output units    : AU-D                                                         
Output type     : GEOMETRIC cartesian states
Output format   : 2 (position and velocity)
Reference frame : ICRF/J2000.0                                                 
Coordinate systm: Ecliptic and Mean Equinox of Reference Epoch                 
*******************************************************************************
JDTDB
   X     Y     Z
   VX    VY    VZ
*******************************************************************************
$$SOE
2453014.500000000 = A.D. 2004-Jan-10 00:00:00.0000 TDB 
  -1.580607152987767E+00  8.890522431027948E+00 -9.062492947391326E-02
  -5.023539612120164E-03 -3.725080374344294E-03  1.585662982603685E-03
2453019.500000000 = A.D. 2004-Jan-15 00:00:00.0000 TDB 
  -1.596744958847727E+00  8.881041276400190E+00 -8.832207193887459E-02
  -3.171664279851729E-03  6.669637936691266E-04 -8.715123559179391E-04
2453024.500000000 = A.D. 2004-Jan-20 00:00:00.0000 TDB 
  -1.626856967177305E+00  8.888248386937086E+00 -9.329148206406661E-02
  -8.635984465514996E-03  4.142532579542376E-04 -2.103070309336901E-04
2453029.500000000 = A.D. 2004-Jan-25 00:00:00.0000 TDB 
  -1.667596784486079E+00  8.877981327981496E+00 -8.824105670810557E-02
  -6.141975173705113E-03 -3.786630148614229E-03  1.701727884603964E-03
2453034.500000000 = A.D. 2004-Jan-30 00:00:00.0000 TDB 
  -1.686251317388142E+00  8.864502114536583E+00 -8.375795238379438E-02
  -2.632216263958695E-03 -4.081159579341260E-04 -3.963289975375492E-04
2453039.500000000 = A.D. 2004-Feb-04 00:00:00.0000 TDB 
  -1.711168203693718E+00  8.870779702622636E+00 -8.889132439012072E-02
  -7.907660638748915E-03  1.194623807930085E-03 -7.108312664795397E-04
2453044.500000000 = A.D. 2004-Feb-09 00:00:00.0000 TDB 
  -1.753385929749211E+00  8.864478865918224E+00 -8.587109342683343E-02
  -7.204832306055359E-03 -3.500626755319995E-03  1.633119883501685E-03
2453049.500000000 = A.D. 2004-Feb-14 00:00:00.0000 TDB 
  -1.775889457218524E+00  8.848171741269939E+00 -7.967931939707494E-02
  -2.554290464705036E-03 -1.550296351488335E-03  1.591261769423828E-04
2453054.500000000 = A.D. 2004-Feb-19 00:00:00.0000 TDB 
  -1.796167979670310E+00  8.851854673481339E+00 -8.406237465410887E-02
  -6.850314755486695E-03  1.672096894917434E-03 -1.087531810198246E-03
2453059.500000000 = A.D. 2004-Feb-24 00:00:00.0000 TDB 
  -1.838078627306151E+00  8.849705294626720E+00 -8.334375631013125E-02
  -8.087904403874755E-03 -2.908671492385163E-03  1.389029123643282E-03
2453064.500000000 = A.D. 2004-Feb-29 00:00:00.0000 TDB 
  -1.865216067680723E+00  8.832037744122276E+00 -7.612230600126896E-02
  -2.922854395214805E-03 -2.598983856528219E-03  7.105376275287401E-04
2453069.500000000 = A.D. 2004-Mar-05 00:00:00.0000 TDB 
  -1.882095021039225E+00  8.831811655188242E+00 -7.895431676135096E-02
  -5.609228414632732E-03  1.748725599446965E-03 -1.275536293752546E-03
2453074.500000000 = A.D. 2004-Mar-10 00:00:00.0000 TDB 
  -1.921889065851104E+00  8.833404625917192E+00 -8.050458156772596E-02
  -8.683224163524406E-03 -2.082295893967323E-03  9.956899665275491E-04
2453079.500000000 = A.D. 2004-Mar-15 00:00:00.0000 TDB 
  -1.953833446806617E+00  8.815949001439227E+00 -7.304695059391476E-02
  -3.659937155346697E-03 -3.424447093305714E-03  1.183295272212331E-03
2453084.500000000 = A.D. 2004-Mar-20 00:00:00.0000 TDB 
  -1.969026958460897E+00  8.811053577310439E+00 -7.376598910846939E-02
  -4.374813716134852E-03  1.390181389860464E-03 -1.238326155691473E-03
2453089.500000000 = A.D. 2004-Mar-25 00:00:00.0000 TDB 
  -2.005122899654450E+00  8.815401997552840E+00 -7.723185208485032E-02
  -8.906771146865113E-03 -1.120847911841015E-03  4.960472632511563E-04
2453094.500000000 = A.D. 2004-Mar-30 00:00:00.0000 TDB 
  -2.041437964257843E+00  8.799652054813118E+00 -7.035115874877348E-02
  -4.648765447067281E-03 -3.940334395535626E-03  1.521332552129396E-03
2453099.500000000 = A.D. 2004-Apr-04 00:00:00.0000 TDB 
  -2.056854605869137E+00  8.789979190725305E+00 -6.871246115833768E-02
  -3.344417678833037E-03  6.409952535232512E-04 -9.793698729247109E-04
2453104.500000000 = A.D. 2004-Apr-09 00:00:00.0000 TDB 
  -2.088149809067503E+00  8.795628572026274E+00 -7.345212524485441E-02
  -8.709469402868415E-03 -1.480567745857943E-04 -5.092413160989120E-05
2453109.500000000 = A.D. 2004-Apr-14 00:00:00.0000 TDB 
  -2.127846013819582E+00  8.782833118752055E+00 -6.788978642680767E-02
  -5.755558936391591E-03 -4.104719020901084E-03  1.689811258058608E-03
2453114.500000000 = A.D. 2004-Apr-19 00:00:00.0000 TDB 
  -2.145297013199917E+00  8.768909827704576E+00 -6.398578678724877E-02
  -2.677391585780519E-03 -3.827714604414836E-04 -5.427889735273962E-04
2453119.500000000 = A.D. 2004-Apr-24 00:00:00.0000 TDB 
  -2.171364101042423E+00  8.774141022382354E+00 -6.915423327550503E-02
  -8.091116791311024E-03  6.964599599022069E-04 -5.732302066400549E-04
2453124.500000000 = A.D. 2004-Apr-29 00:00:00.0000 TDB 
  -2.213002344026890E+00  8.765158109307761E+00 -6.549453373912013E-02
  -6.844834307116100E-03 -3.915526120503719E-03  1.674276703697289E-03
2453129.500000000 = A.D. 2004-May-04 00:00:00.0000 TDB 
  -2.233954517594595E+00  8.748033953486555E+00 -5.972120720020437E-02
  -2.461728943196890E-03 -1.522103997115428E-03 -1.906626800505449E-06
2453134.500000000 = A.D. 2004-May-09 00:00:00.0000 TDB 
  -2.255131793569104E+00  8.751129114715624E+00 -6.439843305190779E-02
  -7.113416251376399E-03  1.274238546477308E-03 -9.933555977818869E-04
2453139.500000000 = A.D. 2004-May-14 00:00:00.0000 TDB 
  -2.296976652204904E+00  8.746307604115566E+00 -6.299229981151830E-02
  -7.788863419763962E-03 -3.405149706394495E-03  1.478817633614316E-03
2453144.500000000 = A.D. 2004-May-19 00:00:00.0000 TDB 
  -2.322382806863872E+00  8.727383991737243E+00 -5.597788700803324E-02
  -2.704251400735370E-03 -2.611951712938873E-03  5.588186015601889E-04
2453149.500000000 = A.D. 2004-May-24 00:00:00.0000 TDB 
  -2.339729051283400E+00  8.726903159840431E+00 -5.931602585832460E-02
  -5.904185265648758E-03  1.473948764050879E-03 -1.241242522409674E-03
2453154.500000000 = A.D. 2004-May-29 00:00:00.0000 TDB 
  -2.379952982823784E+00  8.726007656760258E+00 -6.022211118285462E-02
  -8.474289862761343E-03 -2.636674526647999E-03  1.124775549933968E-03
2453159.500000000 = A.D. 2004-Jun-03 00:00:00.0000 TDB 
  -2.410165261524931E+00  8.706846160472496E+00 -5.273679535967426E-02
  -3.342768600649503E-03 -3.511831413947181E-03  1.060785068065528E-03
2453164.500000000 = A.D. 2004-Jun-08 00:00:00.0000 TDB 
  -2.425284248845267E+00  8.701854357850760E+00 -5.409457619457865E-02
  -4.644106028014386E-03  1.240563102350171E-03 -1.270648968954740E-03
2453169.500000000 = A.D. 2004-Jun-13 00:00:00.0000 TDB 
  -2.462213097134946E+00  8.704057730951885E+00 -5.705114105659044E-02
  -8.809161903799453E-03 -1.701641149509183E-03  6.502828749953903E-04
2453174.500000000 = A.D. 2004-Jun-18 00:00:00.0000 TDB 
  -2.496967720075128E+00  8.686192795585717E+00 -4.991195527894331E-02
  -4.269281244839521E-03 -4.122416088100634E-03  1.442093766108955E-03
2453179.500000000 = A.D. 2004-Jun-23 00:00:00.0000 TDB 
  -2.511742544097550E+00  8.676390940373729E+00 -4.894847293543572E-02
  -3.533208578273307E-03  5.956036398848842E-04 -1.072902524278480E-03
2453184.500000000 = A.D. 2004-Jun-28 00:00:00.0000 TDB 
  -2.544111857308482E+00  8.680356493712740E+00 -5.339042277956987E-02
  -8.732924411991323E-03 -7.173477477699310E-04  1.098622632246286E-04
2453189.500000000 = A.D. 2004-Jul-03 00:00:00.0000 TDB 
  -2.582570642610690E+00  8.665123766813338E+00 -4.736861044902935E-02
  -5.353113262656132E-03 -4.389300527289511E-03  1.661770563286063E-03
2453194.500000000 = A.D. 2004-Jul-08 00:00:00.0000 TDB 
  -2.598868649251431E+00  8.650863802688457E+00 -4.408031473588892E-02
  -2.746029222020648E-03 -3.632804892745130E-04 -6.811226026711037E-04
2453199.500000000 = A.D. 2004-Jul-13 00:00:00.0000 TDB 
  -2.626041587017090E+00  8.654923336694413E+00 -4.920953241698686E-02
  -8.229740256502945E-03  1.798006459882178E-04 -4.276922205638865E-04
2453204.500000000 = A.D. 2004-Jul-18 00:00:00.0000 TDB 
  -2.666881782940000E+00  8.643307494392904E+00 -4.494319849490318E-02
  -6.458128746965089E-03 -4.299476869276104E-03  1.699651304730363E-03
2453209.500000000 = A.D. 2004-Jul-23 00:00:00.0000 TDB 
  -2.686290128563472E+00  8.625504023756328E+00 -3.964444622046463E-02
  -2.393210975347470E-03 -1.485704714434055E-03 -1.619413766734716E-04
2453214.500000000 = A.D. 2004-Jul-28 00:00:00.0000 TDB 
  -2.708382775230007E+00  8.627910328072430E+00 -4.454763378664757E-02
  -7.342462037335212E-03  8.486230671834383E-04 -8.853220128483126E-04
2453219.500000000 = A.D. 2004-Aug-02 00:00:00.0000 TDB 
  -2.749935662779032E+00  8.620417475669072E+00 -4.246222936063498E-02
  -7.453647521479133E-03 -3.875809978619094E-03  1.554613136616755E-03
